{
  "norad_id": 32767,
  "name": "VINASAT-1",
  "history": [
    {
      "epoch": "2026-04-10T11:27:18.168768Z",
      "apogee_km": 35796.45220020008,
      "perigee_km": 35775.85915965521,
      "latitude_deg": -0.02427216179166083,
      "longitude_deg": 131.97339145601336,
      "height_km": 35785.17869569329,
      "semi_major_axis_km": 42164.29267992765,
      "eccentricity": 0.0002442,
      "inclination_deg": 0.0077,
      "raan_deg": 207.7922,
      "arg_perigee_deg": 207.5436,
      "mean_anomaly_deg": 87.1435,
      "mean_motion_rev_day": 1.00273352
    },
    {
      "epoch": "2026-04-11T20:31:38.396928Z",
      "apogee_km": 35797.21394687579,
      "perigee_km": 35777.39618910384,
      "latitude_deg": 0.02726871432218796,
      "longitude_deg": 131.93483267314497,
      "height_km": 35793.83101556727,
      "semi_major_axis_km": 42165.44206798982,
      "eccentricity": 0.000235,
      "inclination_deg": 0.0096,
      "raan_deg": 179.8229,
      "arg_perigee_deg": 235.55,
      "mean_anomaly_deg": 224.5589,
      "mean_motion_rev_day": 1.00269252
    },
    {
      "epoch": "2026-04-12T20:38:38.607648Z",
      "apogee_km": 35796.77317457323,
      "perigee_km": 35776.361241266175,
      "latitude_deg": 0.015560426322569263,
      "longitude_deg": 131.93039104483327,
      "height_km": 35793.20663178948,
      "semi_major_axis_km": 42164.704207919705,
      "eccentricity": 0.00024205,
      "inclination_deg": 0.0059,
      "raan_deg": 145.7867,
      "arg_perigee_deg": 271.5698,
      "mean_anomaly_deg": 225.3147,
      "mean_motion_rev_day": 1.00271884
    },
    {
      "epoch": "2026-04-14T19:08:38.561856Z",
      "apogee_km": 35797.53745067933,
      "perigee_km": 35778.25913934245,
      "latitude_deg": 0.024081911940092893,
      "longitude_deg": 131.9262961075,
      "height_km": 35796.279738275414,
      "semi_major_axis_km": 42166.03529501089,
      "eccentricity": 0.0002286,
      "inclination_deg": 0.0102,
      "raan_deg": 221.686,
      "arg_perigee_deg": 197.8783,
      "mean_anomaly_deg": 202.5069,
      "mean_motion_rev_day": 1.00267136
    },
    {
      "epoch": "2026-04-15T14:00:38.425248Z",
      "apogee_km": 35796.76735663914,
      "perigee_km": 35777.77605655768,
      "latitude_deg": -0.007827280833377777,
      "longitude_deg": 131.95530629619265,
      "height_km": 35792.48878504784,
      "semi_major_axis_km": 42165.40870659841,
      "eccentricity": 0.0002252,
      "inclination_deg": 0.0026,
      "raan_deg": 189.4785,
      "arg_perigee_deg": 229.6242,
      "mean_anomaly_deg": 126.7426,
      "mean_motion_rev_day": 1.00269371
    },
    {
      "epoch": "2026-04-16T21:12:07.602048Z",
      "apogee_km": 35794.844559506564,
      "perigee_km": 35777.7342352745,
      "latitude_deg": -0.010187820099531106,
      "longitude_deg": 131.9230075032907,
      "height_km": 35789.98233163381,
      "semi_major_axis_km": 42164.42639739054,
      "eccentricity": 0.0002029,
      "inclination_deg": 0.0154,
      "raan_deg": 48.8274,
      "arg_perigee_deg": 5.7558,
      "mean_anomaly_deg": 240.4251,
      "mean_motion_rev_day": 1.00272875
    },
    {
      "epoch": "2026-04-17T21:25:28.072128Z",
      "apogee_km": 35795.053769130194,
      "perigee_km": 35777.800872701366,
      "latitude_deg": -0.019006759134447486,
      "longitude_deg": 131.9249403633901,
      "height_km": 35789.62502610487,
      "semi_major_axis_km": 42164.56432091578,
      "eccentricity": 0.00020459,
      "inclination_deg": 0.0033,
      "raan_deg": 66.9464,
      "arg_perigee_deg": 347.9812,
      "mean_anomaly_deg": 244.4138,
      "mean_motion_rev_day": 1.00272383
    },
    {
      "epoch": "2026-04-18T19:31:28.288704Z",
      "apogee_km": 35795.133954243574,
      "perigee_km": 35777.99821890919,
      "latitude_deg": 0.004200577537709815,
      "longitude_deg": 131.93515332818203,
      "height_km": 35792.97966960521,
      "semi_major_axis_km": 42164.70308657638,
      "eccentricity": 0.0002032,
      "inclination_deg": 0.002,
      "raan_deg": 156.0103,
      "arg_perigee_deg": 259.6267,
      "mean_anomaly_deg": 216.1147,
      "mean_motion_rev_day": 1.00271888
    },
    {
      "epoch": "2026-04-19T17:32:38.696352Z",
      "apogee_km": 35795.3256429818,
      "perigee_km": 35778.04649848741,
      "latitude_deg": 0.00019321766790233303,
      "longitude_deg": 131.94830502341904,
      "height_km": 35794.78123081825,
      "semi_major_axis_km": 42164.82307073461,
      "eccentricity": 0.0002049,
      "inclination_deg": 0.0222,
      "raan_deg": 96.1148,
      "arg_perigee_deg": 320.137,
      "mean_anomaly_deg": 186.6976,
      "mean_motion_rev_day": 1.0027146
    },
    {
      "epoch": "2026-04-20T12:44:21.959808Z",
      "apogee_km": 35795.28012966112,
      "perigee_km": 35778.968919892875,
      "latitude_deg": -0.03222806702164045,
      "longitude_deg": 131.96876260085028,
      "height_km": 35789.8209933643,
      "semi_major_axis_km": 42165.261524777,
      "eccentricity": 0.00019342,
      "inclination_deg": 0.0149,
      "raan_deg": 283.2996,
      "arg_perigee_deg": 135.5435,
      "mean_anomaly_deg": 112.8195,
      "mean_motion_rev_day": 1.00269896
    },
    {
      "epoch": "2026-04-21T19:39:41.313024Z",
      "apogee_km": 35795.6345091607,
      "perigee_km": 35778.91170751173,
      "latitude_deg": 0.0032162542807454746,
      "longitude_deg": 131.9294957399241,
      "height_km": 35793.45305930817,
      "semi_major_axis_km": 42165.41010833622,
      "eccentricity": 0.0001983,
      "inclination_deg": 0.0169,
      "raan_deg": 285.08,
      "arg_perigee_deg": 134.8045,
      "mean_anomaly_deg": 216.8688,
      "mean_motion_rev_day": 1.00269366
    }
  ]
}